{
  "norad_id": 62566,
  "name": "STARLINK-11525 [DTC]",
  "history": [
    {
      "epoch": "2026-03-28T20:51:09.766656Z",
      "apogee_km": 357.69772360265233,
      "perigee_km": 355.14263260927873,
      "latitude_deg": 4.640992704880709e-05,
      "longitude_deg": -114.32737131422249,
      "height_km": 356.5156807468371,
      "semi_major_axis_km": 6734.557178105965,
      "eccentricity": 0.0001897,
      "inclination_deg": 42.9991,
      "raan_deg": 24.7464,
      "arg_perigee_deg": 255.3614,
      "mean_anomaly_deg": 104.7044,
      "mean_motion_rev_day": 15.708662
    },
    {
      "epoch": "2026-03-30T04:53:57.791904Z",
      "apogee_km": 357.26452264609543,
      "perigee_km": 356.3710635432444,
      "latitude_deg": -1.0621698234996582e-05,
      "longitude_deg": 115.60795323998435,
      "height_km": 356.8441118778241,
      "semi_major_axis_km": 6734.95479309467,
      "eccentricity": 6.633e-05,
      "inclination_deg": 43.001,
      "raan_deg": 16.698,
      "arg_perigee_deg": 235.2642,
      "mean_anomaly_deg": 124.8163,
      "mean_motion_rev_day": 15.70727092
    },
    {
      "epoch": "2026-03-31T11:25:06.988512Z",
      "apogee_km": 359.61788246127253,
      "perigee_km": 353.47854342115625,
      "latitude_deg": 4.395244985096814e-06,
      "longitude_deg": 8.901571759079765,
      "height_km": 356.96375877413965,
      "semi_major_axis_km": 6734.685212941215,
      "eccentricity": 0.0004558,
      "inclination_deg": 43.0027,
      "raan_deg": 9.0333,
      "arg_perigee_deg": 257.9475,
      "mean_anomaly_deg": 102.0882,
      "mean_motion_rev_day": 15.70821404
    }
  ]
}